[{"OBJECT_NAME":"STARLINK-34662","OBJECT_ID":"2025-150K","EPOCH":"2026-03-09T13:47:22.549056","MEAN_MOTION":14.98328392,"ECCENTRICITY":0.0003384,"INCLINATION":70.0016,"RA_OF_ASC_NODE":134.5869,"ARG_OF_PERICENTER":269.487,"MEAN_ANOMALY":90.5901,"EPHEMERIS_TYPE":0,"CLASSIFICATION_TYPE":"U","NORAD_CAT_ID":64799,"ELEMENT_SET_NO":999,"REV_AT_EPOCH":3650,"BSTAR":0.00033666,"MEAN_MOTION_DOT":3.926e-5,"MEAN_MOTION_DDOT":0},{"OBJECT_NAME":"COSMOS 2251 DEB","OBJECT_ID":"1993-036SS","EPOCH":"2026-03-09T22:59:54.978144","MEAN_MOTION":15.02003149,"ECCENTRICITY":0.00206055,"INCLINATION":74.0288,"RA_OF_ASC_NODE":253.6967,"ARG_OF_PERICENTER":277.4018,"MEAN_ANOMALY":234.4946,"EPHEMERIS_TYPE":0,"CLASSIFICATION_TYPE":"U","NORAD_CAT_ID":34449,"ELEMENT_SET_NO":999,"REV_AT_EPOCH":89999,"BSTAR":0.0029470254,"MEAN_MOTION_DOT":0.00038984,"MEAN_MOTION_DDOT":0}]
